[{"OBJECT_NAME":"HAWK-10B","OBJECT_ID":"2024-149CF","EPOCH":"2026-03-09T22:24:07.674624","MEAN_MOTION":14.96175068,"ECCENTRICITY":0.00063882,"INCLINATION":97.6865,"RA_OF_ASC_NODE":146.0046,"ARG_OF_PERICENTER":71.247,"MEAN_ANOMALY":288.9444,"EPHEMERIS_TYPE":0,"CLASSIFICATION_TYPE":"U","NORAD_CAT_ID":60545,"ELEMENT_SET_NO":999,"REV_AT_EPOCH":8514,"BSTAR":0.00020768682,"MEAN_MOTION_DOT":2.283e-5,"MEAN_MOTION_DDOT":0},{"OBJECT_NAME":"STARLINK-36205","OBJECT_ID":"2025-298Z","EPOCH":"2026-03-09T22:26:49.176096","MEAN_MOTION":14.9914569,"ECCENTRICITY":0.00028056,"INCLINATION":70.0015,"RA_OF_ASC_NODE":13.8601,"ARG_OF_PERICENTER":265.4327,"MEAN_ANOMALY":94.6512,"EPHEMERIS_TYPE":0,"CLASSIFICATION_TYPE":"U","NORAD_CAT_ID":67098,"ELEMENT_SET_NO":999,"REV_AT_EPOCH":1325,"BSTAR":4.5969871e-5,"MEAN_MOTION_DOT":4.67e-6,"MEAN_MOTION_DDOT":0}]
